OBJECT_NAME,OBJECT_ID,EPOCH,MEAN_MOTION,ECCENTRICITY,INCLINATION,RA_OF_ASC_NODE,ARG_OF_PERICENTER,MEAN_ANOMALY,EPHEMERIS_TYPE,CLASSIFICATION_TYPE,NORAD_CAT_ID,ELEMENT_SET_NO,REV_AT_EPOCH,BSTAR,MEAN_MOTION_DOT,MEAN_MOTION_DDOT
ANGOSAT 2,2022-131A,2026-06-30T07:20:28.967712,1.00272058,.0000411,0.0190,91.1721,356.9502,323.3634,0,U,54033,999,1360,0,.146E-5,0
EUTELSAT HOTBIRD 13F,2022-134A,2026-06-30T00:27:03.290976,1.00271674,.00017924,0.0536,290.3962,79.1998,288.2887,0,U,54048,999,1350,0,.98E-6,0
LDPE-2,2022-144A,2026-06-30T12:34:23.735712,1.00539312,.00022225,5.6435,63.5438,94.7353,164.1038,0,U,54219,999,1197,0,.105E-5,0
EUTELSAT HOTBIRD 13G,2022-146A,2026-06-29T17:39:21.542400,1.00262523,.00019588,0.0645,217.9646,297.8038,39.8734,0,U,54225,999,759,0,.97E-6,0
ZHONGXING-19,2022-148A,2026-06-30T12:55:12.950976,1.00272797,.00029255,0.0397,81.2759,35.8294,158.5217,0,U,54230,999,1351,0,-.7E-6,0
GALAXY 31 (G-31),2022-153A,2026-06-30T14:32:23.830368,1.00271858,.00016198,0.0165,54.1436,41.2247,280.3926,0,U,54243,999,726,0,.24E-6,0
GALAXY 32 (G-32),2022-153B,2026-06-29T13:41:26.830752,1.00271332,.00020175,0.0109,21.8148,29.7185,340.4784,0,U,54244,999,1326,0,-.163E-5,0
EUTELSAT 10B,2022-157A,2026-06-30T12:24:34.047936,1.00270189,.00023223,0.0616,96.0552,13.0297,5.6222,0,U,54259,999,1316,0,.79E-6,0
GALAXY 35 (G-35),2022-170A,2026-06-30T14:16:19.801632,1.00268564,.00021873,0.0240,48.7434,51.3617,299.5220,0,U,54741,999,1302,0,0,0
GALAXY 36 (G-36),2022-170B,2026-06-30T11:56:29.240160,1.00270887,.00028776,0.0060,341.0330,112.3690,275.2813,0,U,54742,999,1290,0,-.174E-5,0
METEOSAT-12 (MTG-I1),2022-170C,2026-06-30T07:13:52.102272,1.00276027,.00036763,0.7526,24.9950,73.1654,288.3977,0,U,54743,999,1310,0,.4E-7,0
SHIJIAN-23 (SJ-23),2023-002A,2026-06-30T16:42:21.991104,1.00084361,.0003583,3.7505,78.1509,279.4693,310.8229,0,U,55131,999,1264,0,-.303E-5,0
APSTAR-6E,2023-005A,2026-06-30T13:00:04.486176,1.00289146,.0000889,0.0499,231.8106,236.9632,138.8570,0,U,55239,999,1882,0,-.305E-5,0
USA 342,2023-008A,2026-06-27T17:55:22.293120,1.00269221,.0000542,0.0068,21.1845,140.6398,46.7067,0,U,55263,999,1262,0,0,0
LDPE-3A,2023-008B,2026-06-30T12:45:53.779680,0.99150221,.00015696,2.3810,81.5108,55.0370,170.4673,0,U,55264,999,1194,0,-.25E-6,0
ELEKTRO-L 4,2023-016A,2026-06-29T18:25:29.898624,1.00271611,.000104,0.0882,144.1201,38.4654,177.4091,0,U,55506,999,1246,0,-.47E-6,0
AMAZONAS NEXUS,2023-017A,2026-06-29T17:15:21.421152,1.00269774,.00051317,0.0360,39.1050,37.6615,38.8677,0,U,55508,999,717,0,-.271E-5,0
ZHONGXING-26,2023-023A,2026-06-29T16:25:46.524000,1.00272817,.00034584,0.0638,69.5474,28.5668,191.2311,0,U,55686,999,1235,0,-.342E-5,0
LUCH-5X (OLYMP-K 2),2023-031A,2026-06-30T16:04:56.296992,1.00270316,.0001146,0.0302,85.5386,146.8989,349.4864,0,U,55841,999,1207,0,.44E-6,0
GAOFEN-13 02,2023-036A,2026-06-30T14:09:00.691776,1.00268453,.0003577,1.0226,2.7670,338.3921,297.9477,0,U,55912,999,1222,0,-.209E-5,0
SES-18,2023-038A,2026-06-29T13:37:57.165600,1.00271951,.00007999,0.0453,271.8954,237.1209,230.0202,0,U,55970,999,1222,0,-.9E-6,0
SES-19,2023-038B,2026-06-30T14:39:26.868960,1.00273946,.00020155,0.0115,11.3566,91.0183,261.2669,0,U,55971,999,1222,0,.98E-6,0
INTELSAT 40E (IS-40E),2023-052A,2026-06-29T20:15:06.994080,1.00269117,.00025618,0.0209,39.2854,90.4928,0.9270,0,U,56174,999,1195,0,0,0
VIASAT-3 F1,2023-060A,2026-06-29T15:24:39.657888,1.00270271,.00009507,0.0215,4.6677,105.1301,310.1042,0,U,56370,999,1155,0,0,0
ARCTURUS,2023-060B,2026-06-30T11:02:34.107936,1.00598821,.00004513,2.8081,79.7743,173.3140,272.8258,0,U,56371,999,1159,0,-.213E-5,0
GS-1,2023-060C,2026-06-29T17:23:09.284064,1.00271102,.00036448,2.7571,79.6877,279.8001,268.5552,0,U,56372,999,766,0,-.215E-5,0
BEIDOU-3 G4,2023-066A,2026-06-30T13:56:39.388416,1.00269717,.00049723,0.4727,334.8321,175.7684,117.2482,0,U,56564,999,1152,0,-.27E-5,0
ARABSAT-7B (BADR-8),2023-075A,2026-06-29T20:54:38.647296,1.00247252,.00028496,0.0750,30.0655,10.8494,216.6696,0,U,56757,999,1124,0,.154E-5,0
NVS-01 (IRNSS-1J),2023-076A,2026-06-30T12:58:49.605888,1.00273024,.00028375,2.1359,243.7449,9.9158,349.2242,0,U,56759,999,1125,0,-.324E-5,0
NUSANTARA TIGA (SATRIA),2023-086A,2026-06-29T06:15:42.219648,1.00269034,.00025977,0.0363,1.0805,343.9477,172.2409,0,U,57045,999,988,0,-.224E-5,0
H2SAT (HEINRICH HERTZ),2023-093A,2026-06-30T00:23:33.625824,1.00271793,.00013481,0.0299,97.6220,30.7649,156.3068,0,U,57213,999,1104,0,.13E-6,0
SYRACUSE 4B,2023-093B,2026-06-29T03:51:00.777888,1.00239569,.0001499,0.0261,31.1158,255.0521,42.3631,0,U,57214,999,708,0,0,0
