ANGOSAT 2               
1 54033U 22131A   26181.30589083  .00000146  00000+0  00000+0 0  9997
2 54033   0.0190  91.1721 0000411 356.9502 323.3634  1.00272058 13603
EUTELSAT HOTBIRD 13F    
1 54048U 22134A   26181.01878809  .00000098  00000+0  00000+0 0  9997
2 54048   0.0536 290.3962 0001792  79.1998 288.2887  1.00271674 13500
LDPE-2                  
1 54219U 22144A   26181.52388583  .00000105  00000+0  00000+0 0  9998
2 54219   5.6435  63.5438 0002222  94.7353 164.1038  1.00539312 11979
EUTELSAT HOTBIRD 13G    
1 54225U 22146A   26180.73566600  .00000097  00000+0  00000+0 0  9997
2 54225   0.0645 217.9646 0001958 297.8038  39.8734  1.00262523  7596
ZHONGXING-19            
1 54230U 22148A   26181.53834434 -.00000070  00000+0  00000+0 0  9999
2 54230   0.0397  81.2759 0002925  35.8294 158.5217  1.00272797 13510
GALAXY 31 (G-31)        
1 54243U 22153A   26181.60583137  .00000024  00000+0  00000+0 0  9996
2 54243   0.0165  54.1436 0001619  41.2247 280.3926  1.00271858  7269
GALAXY 32 (G-32)        
1 54244U 22153B   26180.57044943 -.00000163  00000+0  00000+0 0  9994
2 54244   0.0109  21.8148 0002017  29.7185 340.4784  1.00271332 13268
EUTELSAT 10B            
1 54259U 22157A   26181.51706074  .00000079  00000+0  00000+0 0  9994
2 54259   0.0616  96.0552 0002322  13.0297   5.6222  1.00270189 13164
GALAXY 35 (G-35)        
1 54741U 22170A   26181.59467363  .00000000  00000+0  00000+0 0  9992
2 54741   0.0240  48.7434 0002187  51.3617 299.5220  1.00268564 13027
GALAXY 36 (G-36)        
1 54742U 22170B   26181.49756065 -.00000174  00000+0  00000+0 0  9995
2 54742   0.0060 341.0330 0002877 112.3690 275.2813  1.00270887 12903
METEOSAT-12 (MTG-I1)    
1 54743U 22170C   26181.30129748  .00000004  00000+0  00000+0 0  9999
2 54743   0.7526  24.9950 0003676  73.1654 288.3977  1.00276027 13106
SHIJIAN-23 (SJ-23)      
1 55131U 23002A   26181.69608786 -.00000303  00000+0  00000+0 0  9995
2 55131   3.7505  78.1509 0003583 279.4693 310.8229  1.00084361 12647
APSTAR-6E               
1 55239U 23005A   26181.54171859 -.00000305  00000+0  00000+0 0  9999
2 55239   0.0499 231.8106 0000889 236.9632 138.8570  1.00289146 18827
USA 342                 
1 55263U 23008A   26178.74678580  .00000000  00000+0  00000+0 0  9991
2 55263   0.0068  21.1845 0000542 140.6398  46.7067  1.00269221 12624
LDPE-3A                 
1 55264U 23008B   26181.53187245 -.00000025  00000+0  00000+0 0  9994
2 55264   2.3810  81.5108 0001569  55.0370 170.4673  0.99150221 11944
ELEKTRO-L 4             
1 55506U 23016A   26180.76770716 -.00000047  00000+0  00000+0 0  9991
2 55506   0.0882 144.1201 0001040  38.4654 177.4091  1.00271611 12460
AMAZONAS NEXUS          
1 55508U 23017A   26180.71899793 -.00000271  00000+0  00000+0 0  9995
2 55508   0.0360  39.1050 0005131  37.6615  38.8677  1.00269774  7170
ZHONGXING-26            
1 55686U 23023A   26180.68456625 -.00000342  00000+0  00000+0 0  9997
2 55686   0.0638  69.5474 0003458  28.5668 191.2311  1.00272817 12356
LUCH-5X (OLYMP-K 2)     
1 55841U 23031A   26181.67009603  .00000044  00000+0  00000+0 0  9997
2 55841   0.0302  85.5386 0001146 146.8989 349.4864  1.00270316 12070
GAOFEN-13 02            
1 55912U 23036A   26181.58959134 -.00000209  00000+0  00000+0 0  9998
2 55912   1.0226   2.7670 0003577 338.3921 297.9477  1.00268453 12229
SES-18                  
1 55970U 23038A   26180.56802275 -.00000090  00000+0  00000+0 0  9992
2 55970   0.0453 271.8954 0000799 237.1209 230.0202  1.00271951 12227
SES-19                  
1 55971U 23038B   26181.61072765  .00000098  00000+0  00000+0 0  9990
2 55971   0.0115  11.3566 0002015  91.0183 261.2669  1.00273946 12229
INTELSAT 40E (IS-40E)   
1 56174U 23052A   26180.84383095  .00000000  00000+0  00000+0 0  9990
2 56174   0.0209  39.2854 0002561  90.4928   0.9270  1.00269117 11954
VIASAT-3 F1             
1 56370U 23060A   26180.64212567  .00000000  00000+0  00000+0 0  9990
2 56370   0.0215   4.6677 0000950 105.1301 310.1042  1.00270271 11559
ARCTURUS                
1 56371U 23060B   26181.46011699 -.00000213  00000+0  00000+0 0  9992
2 56371   2.8081  79.7743 0000451 173.3140 272.8258  1.00598821 11593
GS-1                    
1 56372U 23060C   26180.72441301 -.00000215  00000+0  00000+0 0  9990
2 56372   2.7571  79.6877 0003644 279.8001 268.5552  1.00271102  7661
BEIDOU-3 G4             
1 56564U 23066A   26181.58101144 -.00000270  00000+0  00000+0 0  9993
2 56564   0.4727 334.8321 0004972 175.7684 117.2482  1.00269717 11529
ARABSAT-7B (BADR-8)     
1 56757U 23075A   26180.87128064  .00000154  00000+0  00000+0 0  9998
2 56757   0.0750  30.0655 0002849  10.8494 216.6696  1.00247252 11249
NVS-01 (IRNSS-1J)       
1 56759U 23076A   26181.54085192 -.00000324  00000+0  00000+0 0  9990
2 56759   2.1359 243.7449 0002837   9.9158 349.2242  1.00273024 11253
NUSANTARA TIGA (SATRIA) 
1 57045U 23086A   26180.26090532 -.00000224  00000+0  00000+0 0  9991
2 57045   0.0363   1.0805 0002597 343.9477 172.2409  1.00269034  9884
H2SAT (HEINRICH HERTZ)  
1 57213U 23093A   26181.01636141  .00000013  00000+0  00000+0 0  9997
2 57213   0.0299  97.6220 0001348  30.7649 156.3068  1.00271793 11046
SYRACUSE 4B             
1 57214U 23093B   26180.16042567  .00000000  00000+0  00000+0 0  9992
2 57214   0.0261  31.1158 0001499 255.0521  42.3631  1.00239569  7081
